[{"OBJECT_NAME":"HAWK-2A","OBJECT_ID":"2021-006CW","EPOCH":"2026-03-09T16:18:25.817472","MEAN_MOTION":15.33304498,"ECCENTRICITY":0.00064498,"INCLINATION":97.2459,"RA_OF_ASC_NODE":115.6184,"ARG_OF_PERICENTER":187.1463,"MEAN_ANOMALY":172.9689,"EPHEMERIS_TYPE":0,"CLASSIFICATION_TYPE":"U","NORAD_CAT_ID":47505,"ELEMENT_SET_NO":999,"REV_AT_EPOCH":28424,"BSTAR":0.0002543136,"MEAN_MOTION_DOT":8.113e-5,"MEAN_MOTION_DDOT":0},{"OBJECT_NAME":"OBJECT AL","OBJECT_ID":"2023-085AL","EPOCH":"2026-03-09T22:26:04.970400","MEAN_MOTION":15.31857284,"ECCENTRICITY":0.000802,"INCLINATION":97.4839,"RA_OF_ASC_NODE":180.0127,"ARG_OF_PERICENTER":78.7242,"MEAN_ANOMALY":281.49,"EPHEMERIS_TYPE":0,"CLASSIFICATION_TYPE":"U","NORAD_CAT_ID":57038,"ELEMENT_SET_NO":999,"REV_AT_EPOCH":15154,"BSTAR":0.0006591637,"MEAN_MOTION_DOT":0.00020246,"MEAN_MOTION_DDOT":0}]
